GLOBALSTAR M001         
1 25162U 98008A   25132.74979263 -.00000108  00000+0 -85109-4 0  9998
2 25162  52.0037  76.3649 0001197 161.9994 226.5902 12.38213397239321
GLOBALSTAR M004         
1 25163U 98008B   25132.81389647 -.00000072  00000+0  17873-3 0  9999
2 25163  51.9977 162.0672 0003127 211.0323 320.2793 12.63395531257217
GLOBALSTAR M014         
1 25306U 98023A   25132.81343529 -.00000078  00000+0 -17888-4 0  9998
2 25306  51.9836 252.8664 0000521 259.9538 264.0404 11.65480374187041
GLOBALSTAR M006         
1 25307U 98023B   25132.66815043 -.00000068  00000+0  15097-3 0  9994
2 25307  51.9948 304.3793 0003658  52.4884  52.7181 11.58174942212716
GLOBALSTAR M015         
1 25308U 98023C   25132.90389752 -.00000075  00000+0 -34543-4 0  9992
2 25308  51.9849  40.6427 0012966  14.6194  64.9017 11.48859266190027
GLOBALSTAR M008         
1 25309U 98023D   25133.24473471 -.00000089  00000+0  52947-4 0  9995
2 25309  51.9978 299.3621 0003410 104.1492  66.8015 12.36068521233830
